<gpx xmlns:ns3="http://www.garmin.com/xmlschemas/TrackPointExtension/v1" xmlns="http://www.topografix.com/GPX/1/1" xmlns:xsi="http://www.w3.org/2001/XMLSchema-instance" xmlns:ns2="http://www.garmin.com/xmlschemas/GpxExtensions/v3" creator="Garmin Connect" version="1.1" xsi:schemaLocation="http://www.topografix.com/GPX/1/1 http://www.topografix.com/GPX/11.xsd">
  <extensions>
<distance>98.06</distance>
<average_hr>104.0</average_hr>
<average_speed>2.7720000743865967</average_speed>
<start_time>2024-04-07T04:25:26+00:00</start_time>
<end_time>2024-04-07T04:26:01.371000+00:00</end_time>
<moving_time>34.0</moving_time>
<elapsed_time>40.167</elapsed_time>
</extensions>
<metadata>
    <link href="connect.garmin.com">
      <text>Garmin Connect</text>
    </link>
    <time>2024-04-07T04:25:26.000Z</time>
  </metadata>
  <trk>
    <name>厦门市 跑步</name>
    <type>running</type>
    <trkseg>
      <trkpt lat="24.439305178821086883544921875" lon="118.1487984023988246917724609375">
        <ele>0</ele>
        <time>2024-04-07T04:25:26.000Z</time>
        <extensions>
          <ns3:TrackPointExtension>
            <ns3:hr>78</ns3:hr>
            <ns3:cad>0</ns3:cad>
          </ns3:TrackPointExtension>
        </extensions>
      </trkpt>
      <trkpt lat="24.4392952881753444671630859375" lon="118.14878272823989391326904296875">
        <ele>0</ele>
        <time>2024-04-07T04:25:27.000Z</time>
        <extensions>
          <ns3:TrackPointExtension>
            <ns3:hr>80</ns3:hr>
            <ns3:cad>0</ns3:cad>
          </ns3:TrackPointExtension>
        </extensions>
      </trkpt>
      <trkpt lat="24.4392067752778530120849609375" lon="118.14862917177379131317138671875">
        <ele>1</ele>
        <time>2024-04-07T04:25:32.000Z</time>
        <extensions>
          <ns3:TrackPointExtension>
            <ns3:hr>81</ns3:hr>
            <ns3:cad>91</ns3:cad>
          </ns3:TrackPointExtension>
        </extensions>
      </trkpt>
      <trkpt lat="24.4391876645386219024658203125" lon="118.14859899692237377166748046875">
        <ele>1.60000002384185791015625</ele>
        <time>2024-04-07T04:25:33.000Z</time>
        <extensions>
          <ns3:TrackPointExtension>
            <ns3:hr>84</ns3:hr>
            <ns3:cad>91</ns3:cad>
          </ns3:TrackPointExtension>
        </extensions>
      </trkpt>
      <trkpt lat="24.439165703952312469482421875" lon="118.14857033081352710723876953125">
        <ele>1.7999999523162841796875</ele>
        <time>2024-04-07T04:25:34.000Z</time>
        <extensions>
          <ns3:TrackPointExtension>
            <ns3:hr>87</ns3:hr>
            <ns3:cad>91</ns3:cad>
          </ns3:TrackPointExtension>
        </extensions>
      </trkpt>
      <trkpt lat="24.43913108669221401214599609375" lon="118.14850478433072566986083984375">
        <ele>3.2000000476837158203125</ele>
        <time>2024-04-07T04:25:36.000Z</time>
        <extensions>
          <ns3:TrackPointExtension>
            <ns3:hr>93</ns3:hr>
            <ns3:cad>91</ns3:cad>
          </ns3:TrackPointExtension>
        </extensions>
      </trkpt>
      <trkpt lat="24.439054392278194427490234375" lon="118.14840319566428661346435546875">
        <ele>4</ele>
        <time>2024-04-07T04:25:40.000Z</time>
        <extensions>
          <ns3:TrackPointExtension>
            <ns3:hr>96</ns3:hr>
            <ns3:cad>89</ns3:cad>
          </ns3:TrackPointExtension>
        </extensions>
      </trkpt>
      <trkpt lat="24.43903771229088306427001953125" lon="118.14837855286896228790283203125">
        <ele>4.19999980926513671875</ele>
        <time>2024-04-07T04:25:41.000Z</time>
        <extensions>
          <ns3:TrackPointExtension>
            <ns3:hr>97</ns3:hr>
            <ns3:cad>89</ns3:cad>
          </ns3:TrackPointExtension>
        </extensions>
      </trkpt>
      <trkpt lat="24.439002089202404022216796875" lon="118.1483392417430877685546875">
        <ele>4.400000095367431640625</ele>
        <time>2024-04-07T04:25:43.000Z</time>
        <extensions>
          <ns3:TrackPointExtension>
            <ns3:hr>100</ns3:hr>
            <ns3:cad>88</ns3:cad>
          </ns3:TrackPointExtension>
        </extensions>
      </trkpt>
      <trkpt lat="24.43893511779606342315673828125" lon="118.14824997447431087493896484375">
        <ele>5.19999980926513671875</ele>
        <time>2024-04-07T04:25:47.000Z</time>
        <extensions>
          <ns3:TrackPointExtension>
            <ns3:hr>102</ns3:hr>
            <ns3:cad>85</ns3:cad>
          </ns3:TrackPointExtension>
        </extensions>
      </trkpt>
      <trkpt lat="24.4389085471630096435546875" lon="118.14822684042155742645263671875">
        <ele>5</ele>
        <time>2024-04-07T04:25:50.000Z</time>
        <extensions>
          <ns3:TrackPointExtension>
            <ns3:hr>109</ns3:hr>
            <ns3:cad>85</ns3:cad>
          </ns3:TrackPointExtension>
        </extensions>
      </trkpt>
      <trkpt lat="24.43891416303813457489013671875" lon="118.1482401676476001739501953125">
        <ele>4.80000019073486328125</ele>
        <time>2024-04-07T04:25:51.000Z</time>
        <extensions>
          <ns3:TrackPointExtension>
            <ns3:hr>110</ns3:hr>
            <ns3:cad>86</ns3:cad>
          </ns3:TrackPointExtension>
        </extensions>
      </trkpt>
      <trkpt lat="24.43898825906217098236083984375" lon="118.14833161421120166778564453125">
        <ele>4</ele>
        <time>2024-04-07T04:25:55.000Z</time>
        <extensions>
          <ns3:TrackPointExtension>
            <ns3:hr>112</ns3:hr>
            <ns3:cad>85</ns3:cad>
          </ns3:TrackPointExtension>
        </extensions>
      </trkpt>
      <trkpt lat="24.43902396596968173980712890625" lon="118.14837922342121601104736328125">
        <ele>3.599999904632568359375</ele>
        <time>2024-04-07T04:25:57.000Z</time>
        <extensions>
          <ns3:TrackPointExtension>
            <ns3:hr>115</ns3:hr>
            <ns3:cad>89</ns3:cad>
          </ns3:TrackPointExtension>
        </extensions>
      </trkpt>
      <trkpt lat="24.439118765294551849365234375" lon="118.14847142435610294342041015625">
        <ele>4</ele>
        <time>2024-04-07T04:26:02.000Z</time>
        <extensions>
          <ns3:TrackPointExtension>
            <ns3:hr>120</ns3:hr>
            <ns3:cad>87</ns3:cad>
          </ns3:TrackPointExtension>
        </extensions>
      </trkpt>
      <trkpt lat="24.43913661874830722808837890625" lon="118.1484869308769702911376953125">
        <ele>4.19999980926513671875</ele>
        <time>2024-04-07T04:26:03.000Z</time>
        <extensions>
          <ns3:TrackPointExtension>
            <ns3:hr>118</ns3:hr>
            <ns3:cad>86</ns3:cad>
          </ns3:TrackPointExtension>
        </extensions>
      </trkpt>
      <trkpt lat="24.439171738922595977783203125" lon="118.148518614470958709716796875">
        <ele>4.400000095367431640625</ele>
        <time>2024-04-07T04:26:06.000Z</time>
        <extensions>
          <ns3:TrackPointExtension>
            <ns3:hr>119</ns3:hr>
            <ns3:cad>86</ns3:cad>
          </ns3:TrackPointExtension>
        </extensions>
      </trkpt>
    </trkseg>
  </trk>
</gpx>
