<gpx xmlns:ns3="http://www.garmin.com/xmlschemas/TrackPointExtension/v1" xmlns="http://www.topografix.com/GPX/1/1" xmlns:xsi="http://www.w3.org/2001/XMLSchema-instance" xmlns:ns2="http://www.garmin.com/xmlschemas/GpxExtensions/v3" creator="Garmin Connect" version="1.1" xsi:schemaLocation="http://www.topografix.com/GPX/1/1 http://www.topografix.com/GPX/11.xsd">
  <extensions>
<distance>8476.28</distance>
<average_hr>140.0</average_hr>
<average_speed>2.190000057220459</average_speed>
<start_time>2026-08-29T09:08:01+00:00</start_time>
<end_time>2026-08-29T10:12:31.987000+00:00</end_time>
<moving_time>3183.409</moving_time>
<elapsed_time>3870.987</elapsed_time>
</extensions>
<metadata>
    <link href="connect.garmin.com">
      <text>Garmin Connect</text>
    </link>
    <time>2026-08-29T09:08:01.000Z</time>
  </metadata>
  <trk>
    <name>跑步机</name>
    <type>treadmill_running</type>
    <trkseg/>
  </trk>
</gpx>
